[{"OBJECT_NAME":"APRIZESAT 2","OBJECT_ID":"2004-025A","EPOCH":"2026-03-09T10:28:26.148000","MEAN_MOTION":14.37988294,"ECCENTRICITY":0.01054712,"INCLINATION":98.091,"RA_OF_ASC_NODE":240.1116,"ARG_OF_PERICENTER":190.5785,"MEAN_ANOMALY":169.3185,"EPHEMERIS_TYPE":0,"CLASSIFICATION_TYPE":"U","NORAD_CAT_ID":28366,"ELEMENT_SET_NO":999,"REV_AT_EPOCH":13730,"BSTAR":0.00014374466,"MEAN_MOTION_DOT":4.21e-6,"MEAN_MOTION_DDOT":0},{"OBJECT_NAME":"COSMOS 2251 DEB","OBJECT_ID":"1993-036AWD","EPOCH":"2026-03-06T06:28:06.528000","MEAN_MOTION":14.43733721,"ECCENTRICITY":0.00501189,"INCLINATION":74,"RA_OF_ASC_NODE":171.0818,"ARG_OF_PERICENTER":277.652,"MEAN_ANOMALY":81.8946,"EPHEMERIS_TYPE":0,"CLASSIFICATION_TYPE":"U","NORAD_CAT_ID":35987,"ELEMENT_SET_NO":999,"REV_AT_EPOCH":62270,"BSTAR":0.0012338356,"MEAN_MOTION_DOT":4.233e-5,"MEAN_MOTION_DDOT":0}]
